0 COSMOS 374 DEB
1 05337U 70089BS  24092.02404163  .00000810  00000-0  82948-3 0  9992
2 05337  62.9623 316.7006 0753588 261.5367  89.9601 12.96199924 45708
0 COSMOS 374 DEB
1  5337U 70089BS  24092.02404163  .00000810  00000-0  82948-3 0  9992
2  5337  62.9623 316.7006 0753588 261.5367  89.9601 12.96199924 48284
0 COSMOS 252 DEB *
1  5322U 68097CJ  24093.47242933  .00003663  00000-0  25929-2 0  9991
2  5322  61.3240  56.4999 0715903 333.1825  23.3766 13.16245709607538
0 COSMOS 252 DEB *
1 05322U 68097CJ  24093.85226830  .00003587  00000-0  25403-2 0  9993
2 05322  61.3241  55.4960 0715914 333.3436  23.2353 13.16248445607584
0 SL-8 DEB
1 05301U 71035D   24092.52716508  .00007133  00000-0  10753-2 0  9998
2 05301  74.0314  22.1940 0007628  43.4331 316.7442 14.74526965792395
0 SL-8 DEB
1  5301U 71035D   24093.54486022  .00005694  00000-0  85931-3 0  9997
2  5301  74.0312  20.2058 0007667  41.1826 318.9924 14.74537768792807
0 COSMOS 397 DEB
1 05280U 71015BF  24093.12344319  .00001713  00000-0  59359-3 0  9990
2 05280  65.6628 350.0442 0765113 288.5462  63.3983 13.37662665535118
0 COSMOS 397 DEB
1  5280U 71015BF  24092.15151416  .00002076  00000-0  71206-3 0  9994
2  5280  65.6628 352.3382 0765191 288.9626  63.0043 13.37659639535298
0 COSMOS 397 DEB
1  5277U 71015BE  24093.09776147  .00000533  00000-0  25181-3 0  9995
2  5277  65.7326 247.4174 0925331 280.1027  69.6981 12.99541485157149
0 COSMOS 397 DEB
1 05277U 71015BE  24093.79037340  .00000482  00000-0  23108-3 0  9997
2 05277  65.7329 245.8853 0925318 279.8153  69.9731 12.99541943157200
0 COSMOS 397 DEB
1 05272U 71015BB  24093.19949370  .00003082  00000-0  10304-2 0  9993
2 05272  65.5587  62.7584 0764847 277.0569  74.4170 13.38122665537913
0 COSMOS 397 DEB
1  5272U 71015BB  24092.37737598  .00003610  00000-0  12011-2 0  9993
2  5272  65.5587  64.7082 0764865 277.3926  74.0903 13.38117933538045
0 THOR ABLESTAR DEB
1 05265U 65065Q   24092.60564767  .00000268  00000-0  45864-3 0  9994
2 05265  90.1542 294.1165 0043904 132.5870 301.4138 13.42043800864413
0 THOR ABLESTAR DEB
1  5265U 65065Q   24092.09514885  .00000279  00000-0  47818-3 0  9996
2  5265  90.1542 294.1087 0043867 133.9920 355.0622 13.42043588864602
0 COSMOS 374 DEB
1 05240U 70089BF  24093.54442548  .00001797  00000-0  15125-2 0  9999
2 05240  62.8612 184.8515 0882394 167.2891 195.2023 12.80030340448197
0 COSMOS 374 DEB
1  5240U 70089BF  24093.62254662  .00001780  00000-0  14991-2 0  9998
2  5240  62.8612 184.6668 0882382 167.2968 195.1931 12.80030631466242
0 SL-8 R/B
1 05239U 71046B   24092.49376462  .00000042  00000-0  68282-4 0  9991
2 05239  74.0268 344.3654 0010150 102.4935  71.4052 13.73910311649959
0 SL-8 R/B
1  5239U 71046B   24093.85608240  .00000033  00000-0  58906-4 0  9996
2  5239  74.0266 342.1081 0010137  99.6793 329.7961 13.73910460650417
0 COSMOS 422
1 05238U 71046A   24093.43223605  .00000049  00000-0  78688-4 0  9993
2 05238  74.0185  65.5003 0015508 216.7524 261.1117 13.72189515646951
0 COSMOS 422
1  5238U 71046A   24092.90407866  .00000046  00000-0  74699-4 0  9992
2  5238  74.0184  66.3733 0015522 217.7032 172.1116 13.72189433647095
0 SL-8 DEB
1 05225U 70102D   24092.37850858  .00000736  00000-0  60276-3 0  9995
2 05225  74.0230  60.0754 0018352 196.0628 318.5077 13.91180406694828
0 SL-8 DEB
1  5225U 70102D   24093.38628928  .00000696  00000-0  57088-3 0  9990
2  5225  74.0233  58.3558 0018297 194.0623 325.7839 13.91181713695182
0 COSMOS 397 DEB
1  5222U 71015AW  24093.56145064  .00002880  00000-0  91726-3 0  9990
2  5222  65.7233 195.7229 0690390 308.8537  45.2808 13.53891597552094
0 COSMOS 397 DEB
1 05222U 71015AW  24092.30570009  .00003086  00000-0  98091-3 0  9993
2 05222  65.7232 198.7570 0690354 309.4234  44.7616 13.53883859551627
0 THORAD AGENA D DEB
1 05220U 70025KG  24092.11106874  .00001292  00000-0  35155-2 0  9993
2 05220  99.8419  48.0468 0397283  10.1682   5.6285 12.91269798527263
0 THORAD AGENA D DEB
1  5220U 70025KG  24093.37955234  .00001060  00000-0  29035-2 0  9997
2  5220  99.8419  49.1796 0397229   7.3607 142.2513 12.91272406527424
0 SL-8 R/B
1 05218U 71041J   24093.47304144  .00000100  00000-0  95065-3 0  9993
2 05218  74.0247  92.3921 0067468 234.4862 242.9379 12.32202021595569
0 SL-8 R/B
1  5218U 71041J   24092.16291630  .00000078  00000-0  76913-3 0  9998
2  5218  74.0246  94.0765 0067475 236.3735 191.3354 12.32201679595648
0 COSMOS 418
1 05217U 71041H   24092.44191677  .00000000  00000-0  99173-4 0  9997
2 05217  74.0116  94.0433 0059649  19.5818 134.8645 12.54560136422769
0 COSMOS 418
1  5217U 71041H   24093.72181308  .00000008  00000-0  15020-3 0  9995
2  5217  74.0117  92.3259 0059675  17.6415 155.4118 12.54560190423156
0 COSMOS 417
1 05216U 71041G   24093.57274328 -.00000001  00000-0  84773-4 0  9998
2 05216  74.0117 118.1654 0095642 352.9289 128.6966 12.61430548436180
0 COSMOS 416
1  5215U 71041F   24093.99685270  .00000016  00000-0  18895-3 0  9991
2  5215  74.0127 282.8070 0077469 181.0445 346.2563 12.58048931429914
0 COSMOS 416
1 05215U 71041F   24092.53493700 -.00000004  00000-0  71847-4 0  9990
2 05215  74.0127 284.7815 0077494 183.2675 205.2804 12.58048822429347
0 COSMOS 415
1 05214U 71041E   24093.38142855  .00000008  00000-0  16061-3 0  9994
2 05214  74.0131  73.5741 0030998  78.1036 282.3486 12.47476941409192
0 COSMOS 415
1  5214U 71041E   24093.22105165  .00000008  00000-0  15897-3 0  9996
2  5214  74.0131  73.7864 0030995  78.3500 282.1025 12.47476928409434
0 COSMOS 414
1  5213U 71041D   24092.23583455  .00000005  00000-0  13352-3 0  9998
2  5213  74.0127 260.2781 0042878 214.7036 319.1429 12.51127597416394
0 COSMOS 414
1 05213U 71041D   24092.61258089  .00000005  00000-0  13373-3 0  9995
2 05213  74.0128 259.7758 0042876 214.1436 216.0241 12.51127613416271
0 COSMOS 413
1 05212U 71041C   24093.52791008  .00000013  00000-0  20441-3 0  9991
2 05212  74.0132 246.8616 0021807 312.0369 117.8716 12.43834764402294
0 COSMOS 413
1  5212U 71041C   24092.81225212  .00000013  00000-0  20543-3 0  9994
2  5212  74.0131 247.8028 0021797 313.0877 153.3056 12.43834693402422
0 COSMOS 412
1  5211U 71041B   24092.23541661 -.00000006  00000-0  73445-4 0  9991
2  5211  74.0130  76.9309 0035755 203.0959 167.5699 12.39866152633797
0 COSMOS 412
1 05211U 71041B   24092.42185911 -.00000002  00000-0  10400-3 0  9991
2 05211  74.0130  76.6875 0035750 202.8230 279.7576 12.39866169633569
0 COSMOS 411
1 05210U 71041A   24093.59511031  .00000003  00000-0  10318-3 0  9993
2 05210  74.0141 304.3638 0112022 151.3761 242.2228 12.64973834442993
0 COSMOS 411
1  5210U 71041A   24093.82774904  .00000006  00000-0  11817-3 0  9997
2  5210  74.0141 304.0455 0112020 151.0159 221.6386 12.64973835443205
0 THORAD AGENA D DEB
1 05203U 70025KE  24093.17158694  .00000660  00000-0  16049-2 0  9997
2 05203  99.8821 167.4582 0225867 160.1384 217.5356 13.16644627576899
0 THORAD AGENA D DEB
1  5203U 70025KE  24093.17158694  .00000660  00000-0  16049-2 0  9997
2  5203  99.8821 167.4582 0225867 160.1384 217.5356 13.16644627577328
0 COSMOS 397 DEB
1 05197U 71015AT  24092.55661454  .00002513  00000-0  92129-3 0  9996
2 05197  65.5358 183.2534 0736084 335.7299  21.0640 13.40224598525337
0 COSMOS 397 DEB
1 05192U 71015AP  24093.12346508  .00021026  00000-0  26707-2 0  9993
2 05192  65.5450   7.8310 0264244  82.3870 280.7158 14.60069575651098
0 COSMOS 397 DEB
1  5192U 71015AP  24093.80842191  .00019114  00000-0  24294-2 0  9991
2  5192  65.5451   5.8588 0264134  82.0192 281.0794 14.60097400651443
0 COSMOS 374 DEB *
1  5189U 70089BA  24093.14188805  .00068597  00000-0  23546-2 0  9997
2  5189  62.5664  45.2963 0073392 268.4323  90.8377 15.27125548177015
0 COSMOS 374 DEB *
1 05189U 70089BA  24092.48707122  .00076971  00000-0  26448-2 0  9991
2 05189  62.5664  47.6225 0073523 268.2550  91.0136 15.27037060176193
0 COSMOS 374 DEB
1 05188U 70089AZ  24092.40025057  .00000601  00000-0  74341-3 0  9995
2 05188  63.9905 238.7993 0915371 271.1476  78.4930 12.60102769770471
0 COSMOS 397 DEB
1  5187U 71015AM  24093.39135621  .00004082  00000-0  12382-2 0  9995
2  5187  65.6509  74.3057 0621236  98.1862 269.0101 13.67980664561487
0 COSMOS 397 DEB
1 05187U 71015AM  24092.36785126  .00004141  00000-0  12558-2 0  9993
2 05187  65.6509  76.8415 0621276  98.6590 268.5320 13.67971906561104
0 THORAD AGENA D DEB
1 05185U 70025KB  24093.03741754  .00002840  00000-0  22090-2 0  9991
2 05185  99.6795 117.2644 0067394 227.5872 131.9572 13.92292311689412
0 THORAD AGENA D DEB
1  5185U 70025KB  24093.03741754  .00002840  00000-0  22090-2 0  9991
2  5185  99.6795 117.2644 0067394 227.5872 131.9572 13.92292311689614
0 THORAD AGENA D DEB
1  5183U 70025JZ  24093.51200348  .00001119  00000-0  11681-2 0  9993
2  5183 100.0984 283.8959 0033628 196.3982 219.9527 13.77543957693975
0 THORAD AGENA D DEB
1 05183U 70025JZ  24092.49504896  .00001199  00000-0  12482-2 0  9992
2 05183 100.0984 282.8161 0033608 199.0301 216.6954 13.77541837693504
0 SL-8 R/B
1 05181U 71038B   24093.50375735 -.00000024  00000-0 -12302-4 0  9997
2 05181  74.0045   6.5145 0054780  42.9087 129.6533 13.20722319551260
0 SL-8 R/B
1  5181U 71038B   24093.19666347 -.00000029  00000-0 -23040-4 0  9990
2  5181  74.0045   6.9793 0054772  43.4359 109.5416 13.20722300551540
0 COSMOS 409
1 05180U 71038A   24092.54833076  .00000225  00000-0  62806-3 0  9990
2 05180  74.0009 148.1231 0023057 194.0519 278.3755 13.17808883545987
0 COSMOS 409
1  5180U 71038A   24093.61194465  .00000155  00000-0  44646-3 0  9995
2  5180  74.0005 146.5216 0023034 192.2629 284.2661 13.17809118546294
0 SL-8 R/B
1 05175U 71035B   24093.12138240  .00000307  00000-0  10820-3 0  9997
2 05175  74.0488 322.8134 0030656 276.1504  83.6158 14.38636472771302
0 SL-8 R/B
1  5175U 71035B   24093.88630365  .00000283  00000-0  10037-3 0  9998
2  5175  74.0487 321.4042 0030661 274.6136  85.1517 14.38636849771689
0 COSMOS 407
1  5174U 71035A   24093.13432992  .00000186  00000-0  76372-4 0  9998
2  5174  74.0435 144.7804 0018107 167.5428 192.6175 14.33697288765257
